{"type": "FeatureCollection", "features": [ {"type": "Feature", "properties": {"norad_id": 67051, "name": "STARLINK-35706", "group": "last-30-days", "lat": 19.430503113747758, "lon": -110.97432019919707, "alt_km": 382.9478835814143, "timestamp": "2025-12-27T15:27:09.833540+00:00", "meta": {"OBJECT_NAME": "STARLINK-35706", "OBJECT_ID": "2025-294X", "EPOCH": "2025-12-27T06:00:02.000160", "MEAN_MOTION": 15.62416856, "ECCENTRICITY": 0.00011202, "INCLINATION": 42.9999, "RA_OF_ASC_NODE": 93.6125, "ARG_OF_PERICENTER": 278.2002, "MEAN_ANOMALY": 175.8061, "EPHEMERIS_TYPE": 0, "CLASSIFICATION_TYPE": "U", "NORAD_CAT_ID": 67051, "ELEMENT_SET_NO": 999, "REV_AT_EPOCH": 263, "BSTAR": -0.023867984, "MEAN_MOTION_DOT": -0.01923039, "MEAN_MOTION_DDOT": 0}, "tle": {"line1": "1 67051U 25294X   25361.25002315 -.01923039  00000+0 -23868-1 0  9992", "line2": "2 67051  42.9999  93.6125 0001120 278.2002 175.8061 15.62416856  2637"}}, "geometry": {"type": "Point", "coordinates": [-110.97432019919707, 19.430503113747758]}}, {"type": "Feature", "properties": {"norad_id": 67052, "name": "STARLINK-35720", "group": "last-30-days", "lat": 18.19594320472985, "lon": -109.39020370612455, "alt_km": 383.14903994132146, "timestamp": "2025-12-27T15:27:09.833552+00:00", "meta": {"OBJECT_NAME": "STARLINK-35720", "OBJECT_ID": "2025-294Y", "EPOCH": "2025-12-27T06:00:02.000160", "MEAN_MOTION": 15.62414563, "ECCENTRICITY": 0.00011619, "INCLINATION": 42.9999, "RA_OF_ASC_NODE": 93.6078, "ARG_OF_PERICENTER": 278.2921, "MEAN_ANOMALY": 177.6637, "EPHEMERIS_TYPE": 0, "CLASSIFICATION_TYPE": "U", "NORAD_CAT_ID": 67052, "ELEMENT_SET_NO": 999, "REV_AT_EPOCH": 262, "BSTAR": -0.023896701, "MEAN_MOTION_DOT": -0.01924955, "MEAN_MOTION_DDOT": 0}, "tle": {"line1": "1 67052U 25294Y   25361.25002315 -.01924955  00000+0 -23897-1 0  9993", "line2": "2 67052  42.9999  93.6078 0001161 278.2921 177.6637 15.62414563  2621"}}, "geometry": {"type": "Point", "coordinates": [-109.39020370612455, 18.19594320472985]}}, {"type": "Feature", "properties": {"norad_id": 67053, "name": "STARLINK-35739", "group": "last-30-days", "lat": 16.89747402923167, "lon": -107.7657202290877, "alt_km": 383.3965025413054, "timestamp": "2025-12-27T15:27:09.833563+00:00", "meta": {"OBJECT_NAME": "STARLINK-35739", "OBJECT_ID": "2025-294Z", "EPOCH": "2025-12-27T06:00:02.000160", "MEAN_MOTION": 15.62398749, "ECCENTRICITY": 0.0001191, "INCLINATION": 42.9999, "RA_OF_ASC_NODE": 93.6026, "ARG_OF_PERICENTER": 279.8673, "MEAN_ANOMALY": 178.1315, "EPHEMERIS_TYPE": 0, "CLASSIFICATION_TYPE": "U", "NORAD_CAT_ID": 67053, "ELEMENT_SET_NO": 999, "REV_AT_EPOCH": 227, "BSTAR": -0.023845934, "MEAN_MOTION_DOT": -0.01920307, "MEAN_MOTION_DDOT": 0}, "tle": {"line1": "1 67053U 25294Z   25361.25002315 -.01920307  00000+0 -23846-1 0  9995", "line2": "2 67053  42.9999  93.6026 0001191 279.8673 178.1315 15.62398749  2276"}}, "geometry": {"type": "Point", "coordinates": [-107.7657202290877, 16.89747402923167]}}, {"type": "Feature", "properties": {"norad_id": 67054, "name": "STARLINK-35754", "group": "last-30-days", "lat": 15.543497745672214, "lon": -106.11175422574159, "alt_km": 383.60450415957166, "timestamp": "2025-12-27T15:27:09.833573+00:00", "meta": {"OBJECT_NAME": "STARLINK-35754", "OBJECT_ID": "2025-294AA", "EPOCH": "2025-12-27T06:00:02.000160", "MEAN_MOTION": 15.6238216, "ECCENTRICITY": 0.00011383, "INCLINATION": 42.9996, "RA_OF_ASC_NODE": 93.5976, "ARG_OF_PERICENTER": 279.2899, "MEAN_ANOMALY": 180.824, "EPHEMERIS_TYPE": 0, "CLASSIFICATION_TYPE": "U", "NORAD_CAT_ID": 67054, "ELEMENT_SET_NO": 999, "REV_AT_EPOCH": 244, "BSTAR": -0.023912127, "MEAN_MOTION_DOT": -0.01923863, "MEAN_MOTION_DDOT": 0}, "tle": {"line1": "1 67054U 25294AA  25361.25002315 -.01923863  00000+0 -23912-1 0  9990", "line2": "2 67054  42.9996  93.5976 0001138 279.2899 180.8240 15.62382160  2448"}}, "geometry": {"type": "Point", "coordinates": [-106.11175422574159, 15.543497745672214]}}, {"type": "Feature", "properties": {"norad_id": 67055, "name": "STARLINK-35790", "group": "last-30-days", "lat": 14.196933648913841, "lon": -104.50369690135062, "alt_km": 383.85165299678647, "timestamp": "2025-12-27T15:27:09.833583+00:00", "meta": {"OBJECT_NAME": "STARLINK-35790", "OBJECT_ID": "2025-294AB", "EPOCH": "2025-12-27T06:00:02.000160", "MEAN_MOTION": 15.62368121, "ECCENTRICITY": 0.00012016, "INCLINATION": 42.9997, "RA_OF_ASC_NODE": 93.5915, "ARG_OF_PERICENTER": 278.9792, "MEAN_ANOMALY": 183.2174, "EPHEMERIS_TYPE": 0, "CLASSIFICATION_TYPE": "U", "NORAD_CAT_ID": 67055, "ELEMENT_SET_NO": 999, "REV_AT_EPOCH": 263, "BSTAR": -0.023971229, "MEAN_MOTION_DOT": -0.01927158, "MEAN_MOTION_DDOT": 0}, "tle": {"line1": "1 67055U 25294AB  25361.25002315 -.01927158  00000+0 -23971-1 0  9997", "line2": "2 67055  42.9997  93.5915 0001201 278.9792 183.2174 15.62368121  2637"}}, "geometry": {"type": "Point", "coordinates": [-104.50369690135062, 14.196933648913841]}}, {"type": "Feature", "properties": {"norad_id": 67056, "name": "STARLINK-36143", "group": "last-30-days", "lat": 10.285879801935517, "lon": -99.99651072143004, "alt_km": 384.3654026800623, "timestamp": "2025-12-27T15:27:09.833596+00:00", "meta": {"OBJECT_NAME": "STARLINK-36143", "OBJECT_ID": "2025-294AC", "EPOCH": "2025-12-27T06:00:02.000160", "MEAN_MOTION": 15.6234384, "ECCENTRICITY": 0.0001099, "INCLINATION": 42.9992, "RA_OF_ASC_NODE": 93.5762, "ARG_OF_PERICENTER": 279.0133, "MEAN_ANOMALY": 189.1092, "EPHEMERIS_TYPE": 0, "CLASSIFICATION_TYPE": "U", "NORAD_CAT_ID": 67056, "ELEMENT_SET_NO": 999, "REV_AT_EPOCH": 263, "BSTAR": -0.023872397, "MEAN_MOTION_DOT": -0.01918454, "MEAN_MOTION_DDOT": 0}, "tle": {"line1": "1 67056U 25294AC  25361.25002315 -.01918454  00000+0 -23872-1 0  9997", "line2": "2 67056  42.9992  93.5762 0001099 279.0133 189.1092 15.62343840  2634"}}, "geometry": {"type": "Point", "coordinates": [-99.99651072143004, 10.285879801935517]}}, {"type": "Feature", "properties": {"norad_id": 67057, "name": "STARLINK-36141", "group": "last-30-days", "lat": 11.614369526739212, "lon": -101.50320031112912, "alt_km": 384.1840831565378, "timestamp": "2025-12-27T15:27:09.833606+00:00", "meta": {"OBJECT_NAME": "STARLINK-36141", "OBJECT_ID": "2025-294AD", "EPOCH": "2025-12-27T06:00:02.000160", "MEAN_MOTION": 15.62354621, "ECCENTRICITY": 0.00011025, "INCLINATION": 42.9992, "RA_OF_ASC_NODE": 93.5817, "ARG_OF_PERICENTER": 279.761, "MEAN_ANOMALY": 186.3559, "EPHEMERIS_TYPE": 0, "CLASSIFICATION_TYPE": "U", "NORAD_CAT_ID": 67057, "ELEMENT_SET_NO": 999, "REV_AT_EPOCH": 255, "BSTAR": -0.02388778, "MEAN_MOTION_DOT": -0.01920268, "MEAN_MOTION_DDOT": 0}, "tle": {"line1": "1 67057U 25294AD  25361.25002315 -.01920268  00000+0 -23888-1 0  9991", "line2": "2 67057  42.9992  93.5817 0001102 279.7610 186.3559 15.62354621  2555"}}, "geometry": {"type": "Point", "coordinates": [-101.50320031112912, 11.614369526739212]}}, {"type": "Feature", "properties": {"norad_id": 67058, "name": "STARLINK-35767", "group": "last-30-days", "lat": 12.900532390134723, "lon": -102.98441307012918, "alt_km": 384.0381686709243, "timestamp": "2025-12-27T15:27:09.833622+00:00", "meta": {"OBJECT_NAME": "STARLINK-35767", "OBJECT_ID": "2025-294AE", "EPOCH": "2025-12-27T06:00:02.000160", "MEAN_MOTION": 15.62363192, "ECCENTRICITY": 0.00011298, "INCLINATION": 42.9996, "RA_OF_ASC_NODE": 93.5868, "ARG_OF_PERICENTER": 279.9334, "MEAN_ANOMALY": 184.2405, "EPHEMERIS_TYPE": 0, "CLASSIFICATION_TYPE": "U", "NORAD_CAT_ID": 67058, "ELEMENT_SET_NO": 999, "REV_AT_EPOCH": 244, "BSTAR": -0.024045874, "MEAN_MOTION_DOT": -0.01932068, "MEAN_MOTION_DDOT": 0}, "tle": {"line1": "1 67058U 25294AE  25361.25002315 -.01932068  00000+0 -24046-1 0  9990", "line2": "2 67058  42.9996  93.5868 0001129 279.9334 184.2405 15.62363192  2448"}}, "geometry": {"type": "Point", "coordinates": [-102.98441307012918, 12.900532390134723]}}, {"type": "Feature", "properties": {"norad_id": 67059, "name": "HULIANWANG DIGUI-119", "group": "last-30-days", "lat": 15.069451146541114, "lon": -37.55804366792154, "alt_km": 806.5524056212289, "timestamp": "2025-12-27T15:27:09.833632+00:00", "meta": {"OBJECT_NAME": "HULIANWANG DIGUI-119", "OBJECT_ID": "2025-295A", "EPOCH": "2025-12-27T06:56:32.865792", "MEAN_MOTION": 14.24618106, "ECCENTRICITY": 0.00139971, "INCLINATION": 50.0049, "RA_OF_ASC_NODE": 310.8735, "ARG_OF_PERICENTER": 297.7807, "MEAN_ANOMALY": 62.1687, "EPHEMERIS_TYPE": 0, "CLASSIFICATION_TYPE": "U", "NORAD_CAT_ID": 67059, "ELEMENT_SET_NO": 999, "REV_AT_EPOCH": 219, "BSTAR": 0.00010538557, "MEAN_MOTION_DOT": 8.7e-07, "MEAN_MOTION_DDOT": 0}, "tle": {"line1": "1 67059U 25295A   25361.28926928  .00000087  00000+0  10539-3 0  9998", "line2": "2 67059  50.0049 310.8735 0013997 297.7807  62.1687 14.24618106  2198"}}, "geometry": {"type": "Point", "coordinates": [-37.55804366792154, 15.069451146541114]}}, {"type": "Feature", "properties": {"norad_id": 67060, "name": "HULIANWANG DIGUI-120", "group": "last-30-days", "lat": 40.11825588978253, "lon": -5.676273297107443, "alt_km": 804.8810010789412, "timestamp": "2025-12-27T15:27:09.833645+00:00", "meta": {"OBJECT_NAME": "HULIANWANG DIGUI-120", "OBJECT_ID": "2025-295B", "EPOCH": "2025-12-23T18:39:46.505376", "MEAN_MOTION": 14.25711377, "ECCENTRICITY": 0.0013178, "INCLINATION": 50.0058, "RA_OF_ASC_NODE": 325.6343, "ARG_OF_PERICENTER": 286.4479, "MEAN_ANOMALY": 73.4987, "EPHEMERIS_TYPE": 0, "CLASSIFICATION_TYPE": "U", "NORAD_CAT_ID": 67060, "ELEMENT_SET_NO": 999, "REV_AT_EPOCH": 169, "BSTAR": 6.7209387e-05, "MEAN_MOTION_DOT": 1e-08, "MEAN_MOTION_DDOT": 0}, "tle": {"line1": "1 67060U 25295B   25357.77762159  .00000001  00000+0  67209-4 0  9996", "line2": "2 67060  50.0058 325.6343 0013178 286.4479  73.4987 14.25711377  1697"}}, "geometry": {"type": "Point", "coordinates": [-5.676273297107443, 40.11825588978253]}}]}